OBJECT_NAME,OBJECT_ID,EPOCH,MEAN_MOTION,ECCENTRICITY,INCLINATION,RA_OF_ASC_NODE,ARG_OF_PERICENTER,MEAN_ANOMALY,EPHEMERIS_TYPE,CLASSIFICATION_TYPE,NORAD_CAT_ID,ELEMENT_SET_NO,REV_AT_EPOCH,BSTAR,MEAN_MOTION_DOT,MEAN_MOTION_DDOT
GOMX-1,2013-066Q,2026-05-18T03:43:24.674016,14.69330105,.0128873,97.6500,340.5125,173.2938,187.0032,0,U,39430,999,66550,.20088E-3,.1296E-4,0
CUBEBUG-2 (LO-74),2013-066AA,2026-05-18T02:49:26.409792,14.93509519,.0059161,97.8896,86.9790,126.1007,234.5710,0,U,39440,999,67250,.18249E-3,.1926E-4,0
NEE-02 KRYSAOR,2013-066AB,2026-05-17T13:58:53.191776,14.86492155,.0066455,97.8884,77.0216,168.7508,191.5212,0,U,39441,999,67165,.10813E-3,.936E-5,0
FUNCUBE-1 (AO-73),2013-066AE,2026-05-17T11:49:51.301632,15.09062717,.00349222,97.8263,108.3115,310.4162,49.4020,0,U,39444,999,67503,.27395422E-3,.433E-4,0
UWE-3,2013-066AG,2026-05-17T14:23:58.792128,14.96740642,.0050496,97.8682,93.4792,62.4412,298.1926,0,U,39446,999,67300,.23594E-3,.2704E-4,0
SMDC ONE 2.4,2013-072H,2026-05-18T05:33:29.839104,15.17574778,.0140795,120.4894,236.4894,346.7031,13.0354,0,U,39469,999,11328,.22478E-3,.5461E-4,0
COSMOS 2488 (RODNIK-S 7),2013-076A,2026-05-18T04:10:18.246720,12.42905296,.0020149,82.4854,187.3937,157.7464,202.4494,0,U,39483,999,56216,.12427E-2,.182E-5,0
COSMOS 2489 (RODNIK-S 8),2013-076B,2026-05-18T03:33:41.148288,12.42879537,.0021999,82.4891,188.7783,158.0000,202.2028,0,U,39484,999,56221,.59891E-3,.93E-6,0
COSMOS 2490 (RODNIK-S 9),2013-076C,2026-05-18T04:49:02.845632,12.42877317,.0021781,82.4838,186.8265,173.3396,186.7977,0,U,39485,999,56215,.97183E-3,.145E-5,0
KAZEOSAT 1,2014-024A,2026-05-18T04:28:04.990368,14.42066661,.0001623,98.3216,211.3773,91.3374,268.8001,0,U,39731,999,63423,.34632E-4,.71E-6,0
COSMOS 2496 (RODNIK-S 10),2014-028A,2026-05-18T05:43:52.496256,12.42877148,.0020634,82.4416,127.4894,141.2340,219.0224,0,U,39761,999,54379,-.64635E-3,-.8E-6,0
COSMOS 2497 (RODNIK-S 11),2014-028B,2026-05-18T05:08:49.465824,12.42892835,.0021293,82.4464,129.1829,136.5103,223.7660,0,U,39762,999,54379,-.6597E-3,-.81E-6,0
COSMOS 2498 (RODNIK-S 12),2014-028C,2026-05-18T04:39:33.653664,12.42979003,.0022009,82.4424,127.6957,136.2830,223.9998,0,U,39763,999,54382,-.98549E-3,-.127E-5,0
HODOYOSHI-4,2014-033B,2026-05-18T04:17:24.806112,14.88049616,.0024853,97.5447,324.4521,47.5598,312.7716,0,U,40011,999,64434,.43225E-4,.347E-5,0
UNISAT-6,2014-033C,2026-05-18T05:05:11.493312,14.88053140,.0045636,97.7845,291.4622,165.6570,194.5955,0,U,40012,999,64170,.20607E-3,.1873E-4,0
DEIMOS-2,2014-033D,2026-05-18T04:06:54.213120,14.93632890,.0002362,97.5869,13.7110,74.0561,286.0920,0,U,40013,999,63324,.5734E-4,.551E-5,0
BUGSAT-1 (TITA),2014-033E,2026-05-18T04:34:24.002112,15.15246804,.0026804,98.0423,228.9944,283.5757,76.2489,0,U,40014,999,65129,.22359E-3,.4164E-4,0
SAUDISAT 4,2014-033G,2026-05-18T03:48:00.794592,14.79495540,.0045142,97.7543,285.3394,169.3272,190.8909,0,U,40016,999,64163,.63874E-4,.433E-5,0
APRIZESAT 9,2014-033J,2026-05-18T04:57:52.823232,14.74174969,.0064876,97.9017,272.1453,297.2390,62.2218,0,U,40018,999,63914,.47775E-4,.272E-5,0
BRITE-CA1 (TORONTO),2014-033L,2026-05-17T19:15:08.339904,14.72631779,.00789196,97.9696,267.2984,15.2242,345.1314,0,U,40020,999,63774,.6591747E-4,.387E-5,0
DUCHIFAT-1,2014-033M,2026-05-18T02:18:45.019296,15.58902062,.0006144,98.0495,193.1751,173.8431,186.2900,0,U,40021,999,65105,.73529E-3,.57217E-3,0
NANOSATC-BR1,2014-033Q,2026-05-18T01:46:29.577216,15.30427931,.0001654,98.0738,167.8159,293.1752,66.9312,0,U,40024,999,64937,.38005E-3,.11102E-3,0
