GOMX-1                  
1 39430U 13066Q   26138.15514669  .00001296  00000+0  20088-3 0  9990
2 39430  97.6500 340.5125 0128873 173.2938 187.0032 14.69330105665505
CUBEBUG-2 (LO-74)       
1 39440U 13066AA  26138.11766678  .00001926  00000+0  18249-3 0  9992
2 39440  97.8896  86.9790 0059161 126.1007 234.5710 14.93509519672505
NEE-02 KRYSAOR          
1 39441U 13066AB  26137.58256009  .00000936  00000+0  10813-3 0  9994
2 39441  97.8884  77.0216 0066455 168.7508 191.5212 14.86492155671652
FUNCUBE-1 (AO-73)       
1 39444U 13066AE  26137.49295488  .00004330  00000+0  27395-3 0  9996
2 39444  97.8263 108.3115 0034922 310.4162  49.4020 15.09062717675035
UWE-3                   
1 39446U 13066AG  26137.59998602  .00002704  00000+0  23594-3 0  9997
2 39446  97.8682  93.4792 0050496  62.4412 298.1926 14.96740642673001
SMDC ONE 2.4            
1 39469U 13072H   26138.23159536  .00005461  00000+0  22478-3 0  9999
2 39469 120.4894 236.4894 0140795 346.7031  13.0354 15.17574778113280
COSMOS 2488 (RODNIK-S 7)
1 39483U 13076A   26138.17382230  .00000182  00000+0  12427-2 0  9998
2 39483  82.4854 187.3937 0020149 157.7464 202.4494 12.42905296562163
COSMOS 2489 (RODNIK-S 8)
1 39484U 13076B   26138.14839292  .00000093  00000+0  59891-3 0  9999
2 39484  82.4891 188.7783 0021999 158.0000 202.2028 12.42879537562218
COSMOS 2490 (RODNIK-S 9)
1 39485U 13076C   26138.20072738  .00000145  00000+0  97183-3 0  9995
2 39485  82.4838 186.8265 0021781 173.3396 186.7977 12.42877317562157
KAZEOSAT 1              
1 39731U 14024A   26138.18616887  .00000071  00000+0  34632-4 0  9998
2 39731  98.3216 211.3773 0001623  91.3374 268.8001 14.42066661634236
COSMOS 2496 (RODNIK-S *)
1 39761U 14028A   26138.23880204 -.00000080  00000+0 -64635-3 0  9994
2 39761  82.4416 127.4894 0020634 141.2340 219.0224 12.42877148543790
COSMOS 2497 (RODNIK-S *)
1 39762U 14028B   26138.21446141 -.00000081  00000+0 -65970-3 0  9995
2 39762  82.4464 129.1829 0021293 136.5103 223.7660 12.42892835543793
COSMOS 2498 (RODNIK-S *)
1 39763U 14028C   26138.19413951 -.00000127  00000+0 -98549-3 0  9995
2 39763  82.4424 127.6957 0022009 136.2830 223.9998 12.42979003543828
HODOYOSHI-4             
1 40011U 14033B   26138.17875933  .00000347  00000+0  43225-4 0  9993
2 40011  97.5447 324.4521 0024853  47.5598 312.7716 14.88049616644340
UNISAT-6                
1 40012U 14033C   26138.21193858  .00001873  00000+0  20607-3 0  9991
2 40012  97.7845 291.4622 0045636 165.6570 194.5955 14.88053140641709
DEIMOS-2                
1 40013U 14033D   26138.17146080  .00000551  00000+0  57340-4 0  9999
2 40013  97.5869  13.7110 0002362  74.0561 286.0920 14.93632890633243
BUGSAT-1 (TITA)         
1 40014U 14033E   26138.19055558  .00004164  00000+0  22359-3 0  9996
2 40014  98.0423 228.9944 0026804 283.5757  76.2489 15.15246804651297
SAUDISAT 4              
1 40016U 14033G   26138.15834253  .00000433  00000+0  63874-4 0  9994
2 40016  97.7543 285.3394 0045142 169.3272 190.8909 14.79495540641632
APRIZESAT 9             
1 40018U 14033J   26138.20686138  .00000272  00000+0  47775-4 0  9992
2 40018  97.9017 272.1453 0064876 297.2390  62.2218 14.74174969639141
BRITE-CA1 (TORONTO)     
1 40020U 14033L   26137.80217986  .00000387  00000+0  65917-4 0  9996
2 40020  97.9696 267.2984 0078919  15.2242 345.1314 14.72631779637747
DUCHIFAT-1              
1 40021U 14033M   26138.09635439  .00057217  00000+0  73529-3 0  9997
2 40021  98.0495 193.1751 0006144 173.8431 186.2900 15.58902062651054
NANOSATC-BR1            
1 40024U 14033Q   26138.07395344  .00011102  00000+0  38005-3 0  9999
2 40024  98.0738 167.8159 0001654 293.1752  66.9312 15.30427931649370
